48795,ONEWEB-0233,2021,109.46,148.0,+,87.91,Active,1,LEO,Russia,UK,Commercial,Communications,Soyuz,1 48795U 21045AE  24332.54478046  .00000026  00000+0  35338-4 0  9990,2 48795  87.9088  12.0514 0001617  87.8403 272.2913 13.15546260169794,13.1554626,0.0001617,LEO
48796,ONEWEB-0190,2021,109.46,148.0,+,87.91,Active,1,LEO,Russia,UK,Commercial,Communications,Soyuz,1 48796U 21045AF  24332.37920054 -.00000086  00000+0 -26206-3 0  9994,2 48796  87.9089  12.0455 0001791  65.8471 294.2846 13.15547163169842,13.15547163,0.0001791,LEO
48797,ONEWEB-0236,2021,109.46,148.0,+,87.91,Active,1,LEO,Russia,UK,Commercial,Communications,Soyuz,1 48797U 21045AG  24332.39662809  .00000145  00000+0  35046-3 0  9994,2 48797  87.9092  12.0421 0001716  92.6932 267.4394 13.15546687169735,13.15546687,0.0001716,LEO
48798,ONEWEB-0248,2021,109.46,148.0,+,87.91,Active,1,LEO,Russia,UK,Commercial,Communications,Soyuz,1 48798U 21045AH  24332.40930120  .00000175  00000+0  43102-3 0  9996,2 48798  87.9080  12.0163 0001228  78.9226 281.2043 13.15546501169894,13.15546501,0.0001228,LEO
48799,ONEWEB-0225,2021,109.46,148.0,+,87.91,Active,1,LEO,Russia,UK,Commercial,Communications,Soyuz,1 48799U 21045AJ  24332.35543225  .00000083  00000+0  18702-3 0  9993,2 48799  87.9088  12.0465 0001703  84.1413 275.9912 13.15547465169898,13.15547465,0.0001703,LEO
48800,ONEWEB-0215,2021,109.46,148.0,+,87.91,Active,1,LEO,Russia,UK,Commercial,Communications,Soyuz,1 48800U 21045AK  24332.40137963  .00000138  00000+0  33207-3 0  9998,2 48800  87.9084  12.0023 0001447  69.9700 290.1585 13.15547028169779,13.15547028,0.0001447,LEO
48801,ONEWEB-0216,2021,109.46,148.0,+,87.91,Active,1,LEO,Russia,UK,Commercial,Communications,Soyuz,1 48801U 21045AL  24332.56299221 -.00001024  00000+0 -27539-2 0  9999,2 48801  87.9082  12.0131 0002174  96.6545 263.4833 13.15554682169807,13.15554682,0.0002174,LEO
48802,ONEWEB-0239,2021,109.46,148.0,+,87.91,Active,1,LEO,Russia,UK,Commercial,Communications,Soyuz,1 48802U 21045AM  24332.56774583  .00000205  00000+0  50932-3 0  9991,2 48802  87.9093  12.0023 0001150  68.7743 291.3510 13.15546330169840,13.1554633,0.000115,LEO
